1 39155U 13019A   16353.66257019 +.00000058 +00000-0 +00000-0 0  9994
2 39155 064.6515 190.3073 0015694 235.9265 208.9093 02.13102047028395
1 39155U 13019A   16354.19243942  .00000062  00000-0  00000+0 0  9997
2 39155  64.6516 190.2894 0015690 235.9176 255.4158  2.13102046 28403
1 39155U 13019A   16354.73004178 +.00000068 +00000-0 +00000-0 0  9990
2 39155 064.6516 190.2715 0015677 235.8741 307.8894 02.13102038028418
1 39155U 13019A   16355.43554522  .00000076  00000-0  00000+0 0  9999
2 39155  64.6517 190.2476 0015668 235.8365 129.1651  2.13102032 28437
1 39155U 13019A   16355.62101907 +.00000078 +00000-0 +00000-0 0  9998
2 39155 064.6519 190.2412 0015676 235.8400 271.4506 02.13102029028434
1 39155U 13019A   16356.45053318  .00000089  00000-0  00000+0 0  9993
2 39155  64.6520 190.2133 0015668 235.7920 187.8735  2.13102025 28455
1 39155U 13019A   16357.67380329 +.00000102 +00000-0 +00000-0 0  9990
2 39155 064.6516 190.1723 0015617 235.7490 046.3669 02.13102008028478
1 39155U 13019A   16357.83968323  .00000104  00000-0  00000+0 0  9995
2 39155  64.6518 190.1669 0015609 235.7583 173.6151  2.13102008 28484
1 39155U 13019A   16358.66772507 +.00000110 +00000-0 +00000-0 0  9992
2 39155 064.6524 190.1387 0015598 235.7481 088.8710 02.13102007028490
1 39155U 13019A   16359.05889083  .00000112  00000-0  00000+0 0  9995
2 39155  64.6524 190.1256 0015597 235.7392  28.9690  2.13102007 28509
1 39155U 13019A   16359.62090057 +.00000113 +00000-0 +00000-0 0  9995
2 39155 064.6524 190.1067 0015588 235.7053 100.1578 02.13102007028512
1 39155U 13019A   16360.13360036  .00000113  00000-0  00000+0 0  9999
2 39155  64.6525 190.0894 0015587 235.6951 133.4940  2.13102009 28531
1 39155U 13019A   16360.57159409 +.00000113 +00000-0 +00000-0 0  9998
2 39155 064.6520 190.0749 0015565 235.6963 109.5065 02.13102001028538
1 39155U 13019A   16361.49842532  .00000110  00000-0  00000+0 0  9992
2 39155  64.6526 190.0434 0015566 235.6579 100.5787  2.13102004 28556
1 39155U 13019A   16361.60658588 +.00000109 +00000-0 +00000-0 0  9990
2 39155 064.6527 190.0398 0015560 235.6664 183.5474 02.13102004028560
1 39155U 13019A   16362.95886844 +.00000103 +00000-0 +00000-0 0  9991
2 39155 064.6528 189.9943 0015555 235.6295 141.0097 02.13102006028593
1 39155U 13019A   16363.17358748  .00000101  00000-0  00000+0 0  9990
2 39155  64.6528 189.9870 0015549 235.6053 305.7590  2.13102004 28592
1 39155U 13019A   16363.55050365 +.00000100 +00000-0 +00000-0 0  9996
2 39155 064.6529 189.9744 0015548 235.6065 234.9154 02.13102007028609
1 39155U 13019A   16364.34570525  .00000096  00000-0  00000+0 0  9992
2 39155  64.6528 189.9483 0015534 235.4794 125.0941  2.13102010 28620
1 39155U 13019A   16364.59289236 +.00000096 +00000-0 +00000-0 0  9996
2 39155 064.6534 189.9399 0015526 235.4791 314.7282 02.13102011028627
1 39155U 13019A   16365.42833804  .00000094  00000-0  00000+0 0  9992
2 39155  64.6532 189.9119 0015519 235.4518 235.6809  2.13102008 28648
1 39155U 13019A   16365.66001955 +.00000093 +00000-0 +00000-0 0  9992
2 39155 064.6531 189.9041 0015516 235.4440 053.4268 02.13102008028647
1 39155U 13019A   16366.67329426  .00000094  00000-0  00000+0 0  9990
2 39155  64.6532 189.8700 0015514 235.3922 110.8292  2.13102018 28669
1 39155U 13019A   16366.93313369  .00000095  00000-0  00000+0 0  9999
2 39155  64.6532 189.8619 0015517 235.4230 310.1378  2.13102015 28672
1 39155U 13019A   17001.66939098 +.00000097 +00000-0 +00000-0 0  9992
2 39155 064.6532 189.8365 0015513 235.3731 155.0288 02.13102017028691
1 39155U 13019A   17002.37883520  .00000101  00000-0  00000+0 0  9994
2 39155  64.6531 189.8126 0015515 235.3392 339.3246  2.13102023 28700
1 39155U 13019A   17002.63210675 +.00000103 +00000-0 +00000-0 0  9991
2 39155 064.6537 189.8040 0015512 235.3692 173.5962 02.13102029028711
1 39155U 13019A   17003.48900532  .00000109  00000-0  00000+0 0  9998
2 39155  64.6536 189.7752 0015515 235.3206 111.0288  2.13102036 28720
1 39155U 13019A   17004.95743731 +.00000119 +00000-0 +00000-0 0  9999
2 39155 064.6538 189.7258 0015520 235.2704 157.6114 02.13102056028761
1 39155U 13019A   17005.15222958  .00000120  00000-0  00000+0 0  9996
2 39155  64.6537 189.7192 0015519 235.2710 307.0490  2.13102058 28762
1 39155U 13019A   17005.90005675 +.00000124 +00000-0 +00000-0 0  9999
2 39155 064.6539 189.6943 0015494 235.3116 160.7167 02.13102067028787
1 39155U 13019A   17006.48307216  .00000125  00000-0  00000+0 0  9999
2 39155  64.6540 189.6745 0015493 235.3111 247.9872  2.13102074 28793
1 39155U 13019A   17006.56123553 +.00000125 +00000-0 +00000-0 0  9999
2 39155 064.6541 189.6719 0015493 235.3129 307.9496 02.13102073028792
1 39155U 13019A   17007.73814535  .00000122  00000-0  00000+0 0  9992
2 39155  64.6541 189.6324 0015478 235.3236 130.8240  2.13102073 28820
1 39155U 13019A   17008.62446563 +.00000114 +00000-0 +00000-0 0  9995
2 39155 064.6541 189.6025 0015489 235.2516 090.8513 02.13102089028836
1 39155U 13019A   17009.15955434  .00000107  00000-0  00000+0 0  9997
2 39155  64.6541 189.5845 0015488 235.2509 141.3539  2.13102089 28858
1 39155U 13019A   17009.56655906 +.00000101 +00000-0 +00000-0 0  9998
2 39155 064.6539 189.5709 0015478 235.2359 093.6089 02.13102086028852
1 39155U 13019A   17010.34952400  .00000089  00000-0  00000+0 0  9999
2 39155  64.6543 189.5446 0015493 235.2853 334.2232  2.13102082 28873
1 39155U 13019A   17010.52040753 +.00000086 +00000-0 +00000-0 0  9996
2 39155 064.6543 189.5389 0015490 235.2865 105.3179 02.13102080028874
1 39155U 13019A   17011.52431190  .00000070  00000-0  00000+0 0  9998
2 39155  64.6541 189.5047 0015497 235.1991 155.5666  2.13102076 28906
1 39155U 13019A   17012.70934770  .00000055  00000-0  00000+0 0  9994
2 39155  64.6542 189.4649 0015495 235.2116 344.6726  2.13102064 28929
1 39155U 13019A   17013.76622476  .00000048  00000-0  00000+0 0  9990
2 39155  64.6542 189.4294 0015488 235.2123  75.4719  2.13102059 28942
1 39155U 13019A   17014.60190938 +.00000047 +00000-0 +00000-0 0  9997
2 39155 064.6544 189.4013 0015490 235.2140 356.5784 02.13102048028960
1 39155U 13019A   17014.82390880  .00000048  00000-0  00000+0 0  9999
2 39155  64.6543 189.3938 0015488 235.2111 166.8918  2.13102047 28970
1 39155U 13019A   17015.67568205 +.00000053 +00000-0 +00000-0 0  9998
2 39155 064.6545 189.3652 0015486 235.1975 100.3566 02.13102040028986
1 39155U 13019A   17016.19324097  .00000058  00000-0  00000+0 0  9999
2 39155  64.6545 189.3478 0015490 235.1889 137.4182  2.13102033 29002
1 39155U 13019A   17016.66612170 +.00000062 +00000-0 +00000-0 0  9999
2 39155 064.6546 189.3319 0015485 235.1885 140.1965 02.13102030029015
1 39155U 13019A   17017.28801727  .00000069  00000-0  00000+0 0  9992
2 39155  64.6550 189.3111 0015486 235.1931 257.2884  2.13102017 29029
1 39155U 13019A   17017.61085657 +.00000073 +00000-0 +00000-0 0  9991
2 39155 064.6550 189.3002 0015488 235.1889 144.9639 02.13102016029032
1 39155U 13019A   17018.31700579  .00000080  00000-0  00000+0 0  9993
2 39155  64.6550 189.2765 0015504 235.2028 326.6827  2.13101998 29049
1 39155U 13019A   17018.64329574 +.00000083 +00000-0 +00000-0 0  9995
2 39155 064.6550 189.2655 0015509 235.2010 217.0030 02.13101997029052
1 39155U 13019A   17019.19681751 +.00000087 +00000-0 +00000-0 0  9998
2 39155 064.6550 189.2468 0015508 235.2073 281.6394 02.13101989029064
1 39155U 13019A   17020.05522751  .00000091  00000-0  00000+0 0  9993
2 39155  64.6553 189.2180 0015520 235.2091 220.1800  2.13101981 29086
1 39155U 13019A   17020.68179245 +.00000092 +00000-0 +00000-0 0  9990
2 39155 064.6554 189.1970 0015516 235.2182 340.8499 02.13101975029097
1 39155U 13019A   17021.15339196  .00000092  00000-0  00000+0 0  9995
2 39155  64.6554 189.1811 0015520 235.2120 342.6510  2.13101973 29102
1 39155U 13019A   17021.75522326 +.00000090 +00000-0 +00000-0 0  9999
2 39155 064.6554 189.1609 0015527 235.2305 084.3372 02.13101976029119
1 39155U 13019A   17022.20337753  .00000089  00000-0  00000+0 0  9995
2 39155  64.6554 189.1459 0015531 235.2317  68.1447  2.13101977 29125
1 39155U 13019A   17022.68567483 +.00000086 +00000-0 +00000-0 0  9990
2 39155 064.6554 189.1296 0015535 235.2372 078.1413 02.13101976029133
1 39155U 13019A   17023.52276509  .00000081  00000-0  00000+0 0  9994
2 39155  64.6554 189.1015 0015539 235.2216   0.3441  2.13101976 29153
1 39155U 13019A   17023.78757672 +.00000079 +00000-0 +00000-0 0  9995
2 39155 064.6551 189.0926 0015550 235.2216 203.4990 02.13101984029168
1 39155U 13019A   17024.57955935  .00000073  00000-0  00000+0 0  9998
2 39155  64.6552 189.0660 0015556 235.2298  91.0732  2.13101988 29170
1 39155U 13019A   17025.58393385  .00000068  00000-0  00000+0 0  9999
2 39155  64.6552 189.0322 0015568 235.2217 141.6034  2.13101988 29200
1 39155U 13019A   17026.70693591 +.00000063 +00000-0 +00000-0 0  9992
2 39155 064.6552 188.9944 0015576 235.1902 283.1643 02.13101994029224
1 39155U 13019A   17027.47576667 +.00000062 +00000-0 +00000-0 0  9990
2 39155 064.6554 188.9685 0015571 235.1987 152.9771 02.13101998029247
1 39155U 13019A   17028.35860576  .00000063  00000-0  00000+0 0  9993
2 39155  64.6551 188.9387 0015590 235.2443 110.2157  2.13101994 29254
1 39155U 13019A   17028.72198544 +.00000064 +00000-0 +00000-0 0  9995
2 39155 064.6551 188.9265 0015593 235.2401 028.9924 02.13101995029265
1 39155U 13019A   17029.37101875  .00000066  00000-0  00000+0 0  9999
2 39155  64.6553 188.9047 0015604 235.2649 166.8840  2.13101997 29285
1 39155U 13019A   17030.54205140  .00000073  00000-0  00000+0 0  9998
2 39155  64.6551 188.8653 0015621 235.2883 345.2371  2.13102002 29307
1 39155U 13019A   17030.84027089 +.00000075 +00000-0 +00000-0 0  9998
2 39155 064.6551 188.8553 0015631 235.3060 214.0035 02.13102003029317
1 39155U 13019A   17031.61865722  .00000080  00000-0  00000+0 0  9993
2 39155  64.6549 188.8291 0015639 235.2967  91.1645  2.13102010 29326
1 39155U 13019A   17031.62513679 +.00000080 +00000-0 +00000-0 0  9996
2 39155 064.6549 188.8289 0015642 235.2986 096.1336 02.13102011029321
